GPS BIIR-2  (PRN 13)    
1 24876U 97035A   22060.17046865 -.00000023  00000-0  00000-0 0  9994
2 24876  55.4956 159.8979 0056221  53.2176 307.2996  2.00563373180487
GPS BIIR-4  (PRN 20)    
1 26360U 00025A   22060.64840479 -.00000005  00000-0  00000-0 0  9992
2 26360  53.9716  83.3201 0051218 182.6302 248.3221  2.00553381159819
GPS BIIR-6  (PRN 22)    
1 26605U 00071A   22060.82449824 -.00000016  00000-0  00000-0 0  9996
2 26605  55.0776 156.9115 0132152 253.1806  77.8116  2.00564764156059
GPS BIIR-8  (PRN 16)    
1 27663U 03005A   22060.54169949  .00000018  00000-0  00000-0 0  9998
2 27663  55.5863 277.3442 0126167  40.0210 295.5863  2.00570874139843
GPS BIIR-9  (PRN 21)    
1 27704U 03010A   22060.76197712 -.00000088  00000-0  00000-0 0  9991
2 27704  54.9847  27.6670 0247299 302.6497  51.1635  2.00575087138648
GPS BIIR-11 (PRN 19)    
1 28190U 04009A   22060.72773060 -.00000086  00000-0  00000-0 0  9990
2 28190  56.0644 338.2914 0088009 115.9121 152.6268  2.00562369131482
GPS BIIR-13 (PRN 02)    
1 28474U 04045A   22060.61978906 -.00000087  00000-0  00000-0 0  9990
2 28474  55.3138  27.7716 0208451 277.4868 180.9856  2.00560588126970
GPS BIIRM-1 (PRN 17)    
1 28874U 05038A   22060.71905031 -.00000082  00000-0  00000-0 0  9992
2 28874  56.1350 335.7209 0138217 274.2160   8.4984  2.00553120120378
GPS BIIRM-2 (PRN 31)    
1 29486U 06042A   22060.47137759 -.00000003  00000-0  00000-0 0  9998
2 29486  54.7307 213.5661 0103785  20.5903   2.3071  2.00560607112939
GPS BIIRM-3 (PRN 12)    
1 29601U 06052A   22059.88829492  .00000027  00000-0  00000-0 0  9998
2 29601  55.5904 276.3037 0084852  71.2919 289.6795  2.00572861111934
GPS BIIRM-4 (PRN 15)    
1 32260U 07047A   22060.69529176 -.00000013  00000-0  00000-0 0  9991
2 32260  53.2843 145.0092 0137382  61.3437 300.0663  2.00554512105355
GPS BIIRM-5 (PRN 29)    
1 32384U 07062A   22060.38366477 -.00000082  00000-0  00000-0 0  9990
2 32384  56.2508 336.4815 0016988 133.3649 132.3663  2.00555627104044
GPS BIIRM-6 (PRN 07)    
1 32711U 08012A   22060.61333540 -.00000005  00000-0  00000-0 0  9996
2 32711  54.4886 212.5209 0158009 229.4112 129.1539  2.00561457102290
GPS BIIRM-8 (PRN 05)    
1 35752U 09043A   22060.75548013  .00000004  00000-0  00000-0 0  9995
2 35752  54.9892  89.8639 0056667  56.4349  64.4446  2.00563355 91901
GPS BIIF-1  (PRN 25)    
1 36585U 10022A   22060.21659362  .00000025  00000-0  00000-0 0  9993
2 36585  54.8709 271.8847 0103342  55.7620 151.8347  2.00559706 86127
GPS BIIF-2  (PRN 01)    
1 37753U 11036A   22060.77361788 -.00000078  00000-0  00000-0 0  9999
2 37753  56.5583  32.8964 0113054  49.8050 284.7293  2.00564627 77811
GPS BIIF-3  (PRN 24)    
1 38833U 12053A   22060.79267309 -.00000011  00000-0  00000-0 0  9992
2 38833  53.5417 207.7594 0122103  45.6607 315.2778  2.00560489 67980
GPS BIIF-4  (PRN 27)    
1 39166U 13023A   22060.15413829 -.00000076  00000-0  00000-0 0  9991
2 39166  55.7669 332.1583 0101707  35.9750 324.7362  2.00566481 64419
GPS BIIF-5  (PRN 30)    
1 39533U 14008A   22060.64691696 -.00000005  00000-0  00000-0 0  9999
2 39533  53.6385 213.2599 0056667 205.2753 154.3963  2.00574714 58228
GPS BIIF-6  (PRN 06)    
1 39741U 14026A   22060.42991582 -.00000077  00000-0  00000-0 0  9992
2 39741  56.5220  32.4360 0028823 303.5083  56.2058  2.00563547 57076
GPS BIIF-7  (PRN 09)    
1 40105U 14045A   22060.52167404 -.00000016  00000-0  00000-0 0  9991
2 40105  54.6678 151.1137 0019960 109.5144 250.7246  2.00570354 54614
GPS BIIF-8  (PRN 03)    
1 40294U 14068A   22060.39628241  .00000008  00000-0  00000-0 0  9991
2 40294  55.7336  92.2038 0037180  52.3698 308.0404  2.00563931 53743
GPS BIIF-9  (PRN 26)    
1 40534U 15013A   22060.52834037  .00000020  00000-0  00000-0 0  9990
2 40534  53.7733 269.1642 0068218  19.7166 340.5840  2.00559059 50364
GPS BIIF-10 (PRN 08)    
1 40730U 15033A   22060.69144998 -.00000076  00000-0  00000-0 0  9990
2 40730  55.2677 331.0170 0073119   4.9099 355.1966  2.00557529 48535
GPS BIIF-11 (PRN 10)    
1 41019U 15062A   22060.24177161  .00000008  00000-0  00000-0 0  9996
2 41019  55.7234  92.0505 0076687 217.6703 141.8613  2.00562981 46360
GPS BIIF-12 (PRN 32)    
1 41328U 16007A   22060.33916695 -.00000018  00000-0  00000-0 0  9994
2 41328  54.8883 151.7666 0058585 227.9629 131.5585  2.00575145 44371
GPS BIII-1  (PRN 04)    
1 43873U 18109A   22060.74574208 -.00000015  00000-0  00000-0 0  9998
2 43873  55.0690 154.1455 0017683 193.3681 357.3773  2.00566314 23617
GPS BIII-2  (PRN 18)    
1 44506U 19056A   22061.27293295 -.00000082  00000-0  00000+0 0  9990
2 44506  55.6301  33.3117 0021183 183.6278 290.7687  2.00570321 18614
GPS BIII-3  (PRN 23)    
1 45854U 20041A   22060.46382514  .00000006  00000-0  00000-0 0  9992
2 45854  55.4408  90.6132 0019799 177.5178  11.5474  2.00560050 12571
GPS BIII-4  (PRN 14)    
1 46826U 20078A   22061.00828376  .00000012  00000-0  00000+0 0  9990
2 46826  54.6390 274.4525 0014849 181.8452  12.7759  2.00566111 10047
GPS BIII-5 (PRN 11)     
1 48859U 21054A   22061.33547444 -.00000080  00000-0  00000+0 0  9999
2 48859  55.1333  35.3617 0002943 208.1108  46.8219  2.00551529  5306
